{
  "status": "success",
  "hasErrors": false,
  "message": "",
  "length": 155,
  "payload": [
    {
      "_index": "tle",
      "_type": "_doc",
      "_id": "rFSHtXYBAz3ao6c9dR1t",
      "_score": 9.328143,
      "_source": {
        "right_ascension": "097.9081",
        "anomaly": "324.2039",
        "calc_anomaly": 324.2039,
        "satellite_number": 10976,
        "calc_mean_motion": 2.22218447,
        "ephemeris": "0",
        "set_number": "013",
        "calc_ballistic_coefficient": 0.00000111,
        "epoch": "04001.45583897",
        "international_designator": "78068B",
        "calc_inclination": 21.399,
        "perigee": "124.8240",
        "revolution_number": "2069",
        "line_number": 25277,
        "calc_perigee": 124.824,
        "drag": "+19086-2",
        "text": "1 10976U 78068B   04001.45583897 +.00000111  00000-0  19086-2 0   132\n2 10976  21.3990  97.9081 7180479 124.8240 324.2039  2.22218447 20692",
        "calc_drag": 0.0019086,
        "timestamp": "2004-01-01 10:56:24",
        "inclination": "021.3990",
        "eccentricity": "7180479",
        "classification": "U",
        "calc_right_ascension": 97.9081,
        "calc_mean_motion_2": 0,
        "ballistic_coefficient": "+.00000111",
        "filename": "tle2004_4of8.txt",
        "calc_eccentricity": 0.7180479,
        "mean_motion": "02.22218447",
        "mean_motion_2": "+00000-0"
      }
    },
    {
      "_index": "tle",
      "_type": "_doc",
      "_id": "aOOItXYBwxzt-ZlwtMb6",
      "_score": 9.328143,
      "_source": {
        "right_ascension": "095.0207",
        "anomaly": "318.8186",
        "calc_anomaly": 318.8186,
        "satellite_number": 10976,
        "calc_mean_motion": 2.222189,
        "ephemeris": "0",
        "set_number": "014",
        "calc_ballistic_coefficient": 0.00000121,
        "epoch": "04009.54927076",
        "international_designator": "78068B",
        "calc_inclination": 21.4229,
        "perigee": "129.8510",
        "revolution_number": "2071",
        "line_number": 154533,
        "calc_perigee": 129.851,
        "drag": "+19086-2",
        "text": "1 10976U 78068B   04009.54927076 +.00000121  00000-0  19086-2 0   143\n2 10976  21.4229  95.0207 7180374 129.8510 318.8186  2.22218900 20715",
        "calc_drag": 0.0019086,
        "timestamp": "2004-01-09 13:10:56",
        "inclination": "021.4229",
        "eccentricity": "7180374",
        "classification": "U",
        "calc_right_ascension": 95.0207,
        "calc_mean_motion_2": 0,
        "ballistic_coefficient": "+.00000121",
        "filename": "tle2004_4of8.txt",
        "calc_eccentricity": 0.7180374,
        "mean_motion": "02.22218900",
        "mean_motion_2": "+00000-0"
      }
    },
    {
      "_index": "tle",
      "_type": "_doc",
      "_id": "yeOJtXYBwxzt-ZlwHN3F",
      "_score": 9.328143,
      "_source": {
        "right_ascension": "095.3516",
        "anomaly": "319.4831",
        "calc_anomaly": 319.4831,
        "satellite_number": 10976,
        "calc_mean_motion": 2.22219013,
        "ephemeris": "0",
        "set_number": "014",
        "calc_ballistic_coefficient": 0.00000126,
        "epoch": "04008.65007693",
        "international_designator": "78068B",
        "calc_inclination": 21.4236,
        "perigee": "129.2746",
        "revolution_number": "2070",
        "line_number": 125537,
        "calc_perigee": 129.2746,
        "drag": "+19086-2",
        "text": "1 10976U 78068B   04008.65007693 +.00000126  00000-0  19086-2 0   143\n2 10976  21.4236  95.3516 7180656 129.2746 319.4831  2.22219013 20706",
        "calc_drag": 0.0019086,
        "timestamp": "2004-01-08 15:36:06",
        "inclination": "021.4236",
        "eccentricity": "7180656",
        "classification": "U",
        "calc_right_ascension": 95.3516,
        "calc_mean_motion_2": 0,
        "ballistic_coefficient": "+.00000126",
        "filename": "tle2004_4of8.txt",
        "calc_eccentricity": 0.7180656,
        "mean_motion": "02.22219013",
        "mean_motion_2": "+00000-0"
      }
    },
    {
      "_index": "tle",
      "_type": "_doc",
      "_id": "-uSJtXYBwxzt-ZlwwBId",
      "_score": 9.328143,
      "_source": {
        "right_ascension": "095.8504",
        "anomaly": "320.4097",
        "calc_anomaly": 320.4097,
        "satellite_number": 10976,
        "calc_mean_motion": 2.22218828,
        "ephemeris": "0",
        "set_number": "013",
        "calc_ballistic_coefficient": 0.00000134,
        "epoch": "04007.30121319",
        "international_designator": "78068B",
        "calc_inclination": 21.4219,
        "perigee": "128.4284",
        "revolution_number": "2070",
        "line_number": 111045,
        "calc_perigee": 128.4284,
        "drag": "+19086-2",
        "text": "1 10976U 78068B   04007.30121319 +.00000134  00000-0  19086-2 0   134\n2 10976  21.4219  95.8504 7181009 128.4284 320.4097  2.22218828 20709",
        "calc_drag": 0.0019086,
        "timestamp": "2004-01-07 07:13:44",
        "inclination": "021.4219",
        "eccentricity": "7181009",
        "classification": "U",
        "calc_right_ascension": 95.8504,
        "calc_mean_motion_2": 0,
        "ballistic_coefficient": "+.00000134",
        "filename": "tle2004_4of8.txt",
        "calc_eccentricity": 0.7181009,
        "mean_motion": "02.22218828",
        "mean_motion_2": "+00000-0"
      }
    },
    {
      "_index": "tle",
      "_type": "_doc",
      "_id": "jlaVtXYBAz3ao6c9yZfw",
      "_score": 9.328143,
      "_source": {
        "right_ascension": "225.0292",
        "anomaly": "019.3312",
        "calc_anomaly": 19.3312,
        "satellite_number": 10976,
        "calc_mean_motion": 2.22203561,
        "ephemeris": "0",
        "set_number": "094",
        "calc_ballistic_coefficient": 0.00000105,
        "epoch": "03002.45136689",
        "international_designator": "78068B",
        "calc_inclination": 21.1233,
        "perigee": "259.4219",
        "revolution_number": "1988",
        "line_number": 59067,
        "calc_perigee": 259.4219,
        "drag": "+19086-2",
        "text": "1 10976U 78068B   03002.45136689 +.00000105  00000-0  19086-2 0   947\n2 10976  21.1233 225.0292 7198452 259.4219  19.3312  2.22203561 19885",
        "calc_drag": 0.0019086,
        "timestamp": "2003-01-02 10:49:58",
        "inclination": "021.1233",
        "eccentricity": "7198452",
        "classification": "U",
        "calc_right_ascension": 225.0292,
        "calc_mean_motion_2": 0,
        "ballistic_coefficient": "+.00000105",
        "filename": "tle2004_3of8.txt",
        "calc_eccentricity": 0.7198452,
        "mean_motion": "02.22203561",
        "mean_motion_2": "+00000-0"
      }
    },
    {
      "_index": "tle",
      "_type": "_doc",
      "_id": "ZFegtXYBAz3ao6c96fzq",
      "_score": 9.328143,
      "_source": {
        "right_ascension": "46.2921",
        "anomaly": "61.0104",
        "calc_anomaly": 61.0104,
        "satellite_number": 10976,
        "calc_mean_motion": 2.22213016,
        "ephemeris": "0",
        "set_number": "229",
        "calc_ballistic_coefficient": -8.5e-7,
        "epoch": "04151.88344864",
        "international_designator": "78068B",
        "calc_inclination": 22.0308,
        "perigee": "216.6052",
        "revolution_number": "21027",
        "line_number": 7319,
        "calc_perigee": 216.6052,
        "drag": "19086-2",
        "text": "1 10976U 78068B   04151.88344864 -.00000085  00000-0  19086-2 0  2294\n2 10976  22.0308  46.2921 7184793 216.6052  61.0104  2.22213016210278",
        "calc_drag": 0.0019086,
        "timestamp": "2004-05-30 21:12:09",
        "inclination": "22.0308",
        "eccentricity": "7184793",
        "classification": "U",
        "calc_right_ascension": 46.2921,
        "calc_mean_motion_2": 0,
        "ballistic_coefficient": "-.00000085",
        "filename": "tle2004_5of8.txt",
        "calc_eccentricity": 0.7184793,
        "mean_motion": "2.22213016",
        "mean_motion_2": "00000-0"
      }
    },
    {
      "_index": "tle",
      "_type": "_doc",
      "_id": "TViltXYBAz3ao6c9TJxK",
      "_score": 9.328143,
      "_source": {
        "right_ascension": "40.7548",
        "anomaly": "45.3849",
        "calc_anomaly": 45.3849,
        "satellite_number": 10976,
        "calc_mean_motion": 2.22212983,
        "ephemeris": "0",
        "set_number": "238",
        "calc_ballistic_coefficient": -0.00000118,
        "epoch": "04168.06488783",
        "international_designator": "78068B",
        "calc_inclination": 22.0679,
        "perigee": "226.5118",
        "revolution_number": "21063",
        "line_number": 148251,
        "calc_perigee": 226.5118,
        "drag": "19086-2",
        "text": "1 10976U 78068B   04168.06488783 -.00000118  00000-0  19086-2 0  2388\n2 10976  22.0679  40.7548 7184653 226.5118  45.3849  2.22212983210634",
        "calc_drag": 0.0019086,
        "timestamp": "2004-06-16 01:33:26",
        "inclination": "22.0679",
        "eccentricity": "7184653",
        "classification": "U",
        "calc_right_ascension": 40.7548,
        "calc_mean_motion_2": 0,
        "ballistic_coefficient": "-.00000118",
        "filename": "tle2004_5of8.txt",
        "calc_eccentricity": 0.7184653,
        "mean_motion": "2.22212983",
        "mean_motion_2": "00000-0"
      }
    }
  ]
}